OBJECT_NAME,OBJECT_ID,EPOCH,MEAN_MOTION,ECCENTRICITY,INCLINATION,RA_OF_ASC_NODE,ARG_OF_PERICENTER,MEAN_ANOMALY,EPHEMERIS_TYPE,CLASSIFICATION_TYPE,NORAD_CAT_ID,ELEMENT_SET_NO,REV_AT_EPOCH,BSTAR,MEAN_MOTION_DOT,MEAN_MOTION_DDOT
STARLINK-32141,2024-132N,2026-06-16T14:14:46.793760,15.30189463,.00012974,53.1625,312.9878,103.5453,256.5693,0,U,60290,999,10670,.13243344E-4,.33E-6,0
STARLINK-32142,2024-132P,2026-06-16T13:44:26.584224,15.30137557,.00018133,53.1640,312.8601,110.1929,249.9267,0,U,60291,999,10670,-.61617401E-4,-.218E-4,0
STARLINK-32149,2024-132Q,2026-06-16T14:08:23.587296,15.31695940,.00013557,53.1618,312.9649,100.9910,259.1244,0,U,60292,999,10670,-.18003137E-4,-.924E-5,0
STARLINK-32159,2024-132R,2026-06-16T13:41:21.593184,15.30196158,.00012674,53.1620,312.8438,120.9014,239.2111,0,U,60293,999,10670,.6341617E-5,-.171E-5,0
STARLINK-32150,2024-132S,2026-06-16T14:15:06.586272,15.31699254,.00010129,53.1620,312.9930,87.3996,272.7121,0,U,60294,999,10670,-.25731933E-4,-.1163E-4,0
STARLINK-32126,2024-132T,2026-06-16T13:54:57.237696,15.31694398,.0001047,53.1620,312.9011,94.8283,265.2838,0,U,60295,999,10670,.8677309E-5,-.96E-6,0
STARLINK-32143,2024-132U,2026-06-16T13:41:30.291936,15.31700437,.00012568,53.1631,312.8470,98.5711,261.5433,0,U,60296,999,10670,.2602167E-5,-.284E-5,0
STARLINK-32034,2024-132V,2026-06-16T13:20:50.891712,15.31693279,.00012159,53.1618,312.7578,74.1848,285.9287,0,U,60297,999,10670,.66209906E-4,.169E-4,0
STARLINK-32124,2024-132W,2026-06-16T13:34:48.164736,15.31643135,.00014716,53.1619,312.8201,97.6677,262.4492,0,U,60298,999,10670,.41142116E-3,.124E-3,0
STARLINK-32151,2024-132X,2026-06-16T13:19:10.272864,15.30194336,.00012593,53.1628,284.7666,90.2368,269.8777,0,U,60299,999,10709,.27961529E-4,.469E-5,0
STARLINK-32134,2024-132Y,2026-06-16T14:17:49.666272,15.30187225,.00016372,53.1635,313.0000,107.0095,253.1086,0,U,60300,999,10670,-.15525795E-4,-.819E-5,0
STARLINK-11147 [DTC],2024-133A,2026-06-15T21:12:30.745152,15.69717806,.000085,53.1582,22.3823,70.0860,290.0249,0,U,60301,999,10915,-.14653792E-4,-.2364E-4,0
STARLINK-11128 [DTC],2024-133B,2026-06-16T07:47:13.426080,15.69721924,.00009383,53.1591,20.1523,88.5474,271.5651,0,U,60302,999,10922,.11312892E-4,.783E-5,0
STARLINK-11227 [DTC],2024-133C,2026-06-16T07:40:09.876000,15.69716054,.00010496,53.1600,20.1182,100.2733,259.8404,0,U,60303,999,10930,-.251948E-6,-.619E-5,0
STARLINK-11224 [DTC],2024-133D,2026-06-16T07:33:06.514272,15.69706577,.00009959,53.1593,20.0812,104.7470,255.3658,0,U,60304,999,10930,-.3322125E-5,-.991E-5,0
STARLINK-11115 [DTC],2024-133E,2026-06-16T07:26:01.949856,15.69716478,.00013149,53.1592,20.0516,87.1538,272.9630,0,U,60305,999,10922,.10392073E-4,.67E-5,0
STARLINK-11109 [DTC],2024-133F,2026-06-16T07:18:58.551840,15.69712794,.00008605,53.1581,20.0180,77.6663,282.4451,0,U,60306,999,10922,-.305752E-6,-.625E-5,0
STARLINK-11223 [DTC],2024-133G,2026-06-16T07:04:50.599776,15.69715754,.00009035,53.1589,19.9524,85.0124,275.0997,0,U,60307,999,10922,.10350234E-4,.666E-5,0
STARLINK-11192 [DTC],2024-133H,2026-06-16T07:11:54.553344,15.69714180,.00009024,53.1589,19.9860,91.8360,268.2761,0,U,60308,999,10922,.951085E-6,-.473E-5,0
STARLINK-11213 [DTC],2024-133J,2026-06-16T06:57:47.085120,15.69711098,.00008091,53.1583,19.9192,71.0816,289.0289,0,U,60309,999,10922,-.1395824E-5,-.757E-5,0
STARLINK-11200 [DTC],2024-133K,2026-06-15T20:08:56.209344,15.69707227,.00009624,53.1594,22.0837,92.7719,267.3409,0,U,60310,999,10915,.18634263E-4,.1669E-4,0
STARLINK-11206 [DTC],2024-133M,2026-06-15T21:26:38.114016,15.69711542,.0000875,53.1582,22.4370,87.3021,272.8097,0,U,60312,999,10915,.46476E-5,-.25E-6,0
STARLINK-11205 [DTC],2024-133N,2026-06-15T21:19:34.587264,15.69710036,.00008328,53.1584,22.4041,77.9002,282.2109,0,U,60313,999,10915,.157365E-5,-.398E-5,0
STARLINK-32191,2024-133P,2026-06-16T09:19:18.020928,15.30182668,.00012325,53.1597,198.4639,95.1127,265.0014,0,U,60314,999,10675,-.40036017E-4,-.1544E-4,0
STARLINK-32194,2024-133Q,2026-06-16T09:40:33.957984,15.30189123,.00010617,53.1599,198.5603,81.6691,278.4430,0,U,60315,999,10675,.10868813E-4,-.37E-6,0
STARLINK-32192,2024-133R,2026-06-16T08:47:21.648192,15.30208940,.00011129,53.1596,198.3294,78.0937,282.0189,0,U,60316,999,10684,.63676877E-4,.1528E-4,0
STARLINK-32189,2024-133S,2026-06-16T09:37:31.689408,15.30187236,.00015297,53.1601,198.5465,79.0085,281.1087,0,U,60317,999,10684,.11770983E-4,-.11E-6,0
STARLINK-32190,2024-133T,2026-06-16T09:23:47.615712,15.30212051,.00012095,53.1599,198.4789,85.5298,274.5841,0,U,60318,999,10675,.21171214E-3,.5918E-4,0
STARLINK-32182,2024-133U,2026-06-16T09:37:44.848128,15.30407753,.00010281,53.1581,198.5489,63.9057,296.2049,0,U,60319,999,10675,.17527934E-3,.4868E-4,0
STARLINK-32199,2024-133V,2026-06-16T09:28:24.867264,15.30183464,.00012781,53.1595,198.5033,109.1883,250.9256,0,U,60320,999,10675,.46667388E-4,.1023E-4,0
