[
  {
    "name": "STARLINK-32141",
    "noradId": "60290",
    "line1": "1 60290U 24132N   26167.59359715  .00000033  00000+0  13243-4 0  9997",
    "line2": "2 60290  53.1625 312.9878 0001297 103.5453 256.5693 15.30189463106709"
  },
  {
    "name": "STARLINK-32142",
    "noradId": "60291",
    "line1": "1 60291U 24132P   26167.57252991 -.00002180  00000+0 -61617-4 0  9999",
    "line2": "2 60291  53.1640 312.8601 0001813 110.1929 249.9267 15.30137557106706"
  },
  {
    "name": "STARLINK-32149",
    "noradId": "60292",
    "line1": "1 60292U 24132Q   26167.58916189 -.00000924  00000+0 -18003-4 0  9992",
    "line2": "2 60292  53.1618 312.9649 0001355 100.9910 259.1244 15.31695940106707"
  },
  {
    "name": "STARLINK-32159",
    "noradId": "60293",
    "line1": "1 60293U 24132R   26167.57038881 -.00000171  00000+0  63416-5 0  9998",
    "line2": "2 60293  53.1620 312.8438 0001267 120.9014 239.2111 15.30196158106703"
  },
  {
    "name": "STARLINK-32150",
    "noradId": "60294",
    "line1": "1 60294U 24132S   26167.59382623 -.00001163  00000+0 -25732-4 0  9998",
    "line2": "2 60294  53.1620 312.9930 0001012  87.3996 272.7121 15.31699254106704"
  },
  {
    "name": "STARLINK-32126",
    "noradId": "60295",
    "line1": "1 60295U 24132T   26167.57982914 -.00000096  00000+0  86773-5 0  9992",
    "line2": "2 60295  53.1620 312.9011 0001047  94.8283 265.2838 15.31694398106701"
  },
  {
    "name": "STARLINK-32143",
    "noradId": "60296",
    "line1": "1 60296U 24132U   26167.57048949 -.00000284  00000+0  26022-5 0  9994",
    "line2": "2 60296  53.1631 312.8470 0001256  98.5711 261.5433 15.31700437106703"
  },
  {
    "name": "STARLINK-32034",
    "noradId": "60297",
    "line1": "1 60297U 24132V   26167.55614458  .00001690  00000+0  66210-4 0  9990",
    "line2": "2 60297  53.1618 312.7578 0001215  74.1848 285.9287 15.31693279106705"
  },
  {
    "name": "STARLINK-32124",
    "noradId": "60298",
    "line1": "1 60298U 24132W   26167.56583524  .00012400  00000+0  41142-3 0  9998",
    "line2": "2 60298  53.1619 312.8201 0001471  97.6677 262.4492 15.31643135106709"
  },
  {
    "name": "STARLINK-32151",
    "noradId": "60299",
    "line1": "1 60299U 24132X   26167.55498001  .00000469  00000+0  27962-4 0  9990",
    "line2": "2 60299  53.1628 284.7666 0001259  90.2368 269.8777 15.30194336107095"
  },
  {
    "name": "STARLINK-32134",
    "noradId": "60300",
    "line1": "1 60300U 24132Y   26167.59571373 -.00000819  00000+0 -15526-4 0  9995",
    "line2": "2 60300  53.1635 313.0000 0001637 107.0095 253.1086 15.30187225106703"
  },
  {
    "name": "STARLINK-11147 [DTC]",
    "noradId": "60301",
    "line1": "1 60301U 24133A   26166.88368918 -.00002364  00000+0 -14654-4 0  9995",
    "line2": "2 60301  53.1582  22.3823 0000850  70.0860 290.0249 15.69717806109152"
  },
  {
    "name": "STARLINK-11128 [DTC]",
    "noradId": "60302",
    "line1": "1 60302U 24133B   26167.32446095  .00000783  00000+0  11313-4 0  9999",
    "line2": "2 60302  53.1591  20.1523 0000938  88.5474 271.5651 15.69721924109223"
  },
  {
    "name": "STARLINK-11227 [DTC]",
    "noradId": "60303",
    "line1": "1 60303U 24133C   26167.31955875 -.00000619  00000+0 -25195-6 0  9995",
    "line2": "2 60303  53.1600  20.1182 0001049 100.2733 259.8404 15.69716054109302"
  },
  {
    "name": "STARLINK-11224 [DTC]",
    "noradId": "60304",
    "line1": "1 60304U 24133D   26167.31465873 -.00000991  00000+0 -33221-5 0  9991",
    "line2": "2 60304  53.1593  20.0812 0000995 104.7470 255.3658 15.69706577109300"
  },
  {
    "name": "STARLINK-11115 [DTC]",
    "noradId": "60305",
    "line1": "1 60305U 24133E   26167.30974479  .00000670  00000+0  10392-4 0  9993",
    "line2": "2 60305  53.1592  20.0516 0001314  87.1538 272.9630 15.69716478109223"
  },
  {
    "name": "STARLINK-11109 [DTC]",
    "noradId": "60306",
    "line1": "1 60306U 24133F   26167.30484435 -.00000625  00000+0 -30575-6 0  9991",
    "line2": "2 60306  53.1581  20.0180 0000860  77.6663 282.4451 15.69712794109221"
  },
  {
    "name": "STARLINK-11223 [DTC]",
    "noradId": "60307",
    "line1": "1 60307U 24133G   26167.29503009  .00000666  00000+0  10350-4 0  9999",
    "line2": "2 60307  53.1589  19.9524 0000903  85.0124 275.0997 15.69715754109224"
  },
  {
    "name": "STARLINK-11192 [DTC]",
    "noradId": "60308",
    "line1": "1 60308U 24133H   26167.29993696 -.00000473  00000+0  95109-6 0  9999",
    "line2": "2 60308  53.1589  19.9860 0000902  91.8360 268.2761 15.69714180109229"
  },
  {
    "name": "STARLINK-11213 [DTC]",
    "noradId": "60309",
    "line1": "1 60309U 24133J   26167.29012830 -.00000757  00000+0 -13958-5 0  9999",
    "line2": "2 60309  53.1583  19.9192 0000809  71.0816 289.0289 15.69711098109225"
  },
  {
    "name": "STARLINK-11200 [DTC]",
    "noradId": "60310",
    "line1": "1 60310U 24133K   26166.83953946  .00001669  00000+0  18634-4 0  9998",
    "line2": "2 60310  53.1594  22.0837 0000962  92.7719 267.3409 15.69707227109156"
  },
  {
    "name": "STARLINK-11206 [DTC]",
    "noradId": "60312",
    "line1": "1 60312U 24133M   26166.89349669 -.00000025  00000+0  46476-5 0  9999",
    "line2": "2 60312  53.1582  22.4370 0000875  87.3021 272.8097 15.69711542109159"
  },
  {
    "name": "STARLINK-11205 [DTC]",
    "noradId": "60313",
    "line1": "1 60313U 24133N   26166.88859476 -.00000398  00000+0  15737-5 0  9990",
    "line2": "2 60313  53.1584  22.4041 0000832  77.9002 282.2109 15.69710036109150"
  },
  {
    "name": "STARLINK-32191",
    "noradId": "60314",
    "line1": "1 60314U 24133P   26167.38840302 -.00001544  00000+0 -40036-4 0  9999",
    "line2": "2 60314  53.1597 198.4639 0001232  95.1127 265.0014 15.30182668106756"
  },
  {
    "name": "STARLINK-32194",
    "noradId": "60315",
    "line1": "1 60315U 24133Q   26167.40317081 -.00000037  00000+0  10869-4 0  9992",
    "line2": "2 60315  53.1599 198.5603 0001061  81.6691 278.4430 15.30189123106750"
  },
  {
    "name": "STARLINK-32192",
    "noradId": "60316",
    "line1": "1 60316U 24133R   26167.36622278  .00001528  00000+0  63677-4 0  9995",
    "line2": "2 60316  53.1596 198.3294 0001112  78.0937 282.0189 15.30208940106843"
  },
  {
    "name": "STARLINK-32189",
    "noradId": "60317",
    "line1": "1 60317U 24133S   26167.40106122 -.00000011  00000+0  11771-4 0  9991",
    "line2": "2 60317  53.1601 198.5465 0001529  79.0085 281.1087 15.30187236106841"
  },
  {
    "name": "STARLINK-32190",
    "noradId": "60318",
    "line1": "1 60318U 24133T   26167.39152333  .00005918  00000+0  21171-3 0  9999",
    "line2": "2 60318  53.1599 198.4789 0001209  85.5298 274.5841 15.30212051106757"
  },
  {
    "name": "STARLINK-32182",
    "noradId": "60319",
    "line1": "1 60319U 24133U   26167.40121352  .00004868  00000+0  17528-3 0  9993",
    "line2": "2 60319  53.1581 198.5489 0001028  63.9057 296.2049 15.30407753106755"
  },
  {
    "name": "STARLINK-32199",
    "noradId": "60320",
    "line1": "1 60320U 24133V   26167.39473226  .00001023  00000+0  46667-4 0  9990",
    "line2": "2 60320  53.1595 198.5033 0001278 109.1883 250.9256 15.30183464106751"
  }
]